1 31426U 99025BTN 18240.77762910 +.00000306 +00000-0 +21297-3 0  9998
2 31426 098.5726 231.6094 0355653 226.1471 263.7875 13.78569779567963
1 31427U 99025BTP 18241.09859233 +.00000848 +00000-0 +36030-3 0  9992
2 31427 098.8107 289.1055 0051243 312.7138 100.2588 14.27274552587094
1 31428U 99025BTQ 18241.37048792 +.00000312 +00000-0 +13450-3 0  9991
2 31428 099.0996 065.8624 0076805 001.3192 116.6563 14.30282853593736
1 31429U 99025BTR 18241.98102132  .00000359  00000-0  21302-3 0  9994
2 31429  98.9562 277.7456 0019727  93.2286  23.5412 14.13777619583508
1 31430U 99025BTS 18241.63279209  .00000399  00000-0  22312-3 0  9994
2 31430  98.9896 268.3899 0032314 101.3987  23.0001 14.16246777584344
1 31431U 99025BTT 18239.35130345  .00000481  00000-0  36934-3 0  9995
2 31431  98.5218 288.5620 0148030 313.0274  45.8565 13.92641084574315
1 31432U 99025BTU 18242.30991934  .00008205  00000-0  20592-3 0  9999
2 31432  99.0263 171.7105 0077372 104.9652 256.0169 15.37297228615860
1 31433U 99025BTV 18241.82759432 +.00000345 +00000-0 +22436-3 0  9997
2 31433 098.3841 288.5799 0131410 082.2425 339.6395 14.04009129580483
1 31434U 99025BTW 18241.62947792 +.00001551 +00000-0 +41245-3 0  9993
2 31434 099.0323 122.0146 0047988 224.6755 197.9594 14.49510764592298
1 31435U 99025BTX 18242.12923180  .00000104  00000-0  37447-4 0  9998
2 31435  98.9848 195.5723 0159207 243.3827 115.0979 14.48662864599159
1 31436U 99025BTY 18241.70564359 +.00001191 +00000-0 +46569-3 0  9992
2 31436 098.8611 324.0260 0135985 198.8548 315.6206 14.26514047585851
1 31437U 99025BTZ 18240.20621988  .00000787  00000-0  39019-3 0  9991
2 31437  98.9717 231.1877 0020096  28.4613 331.7656 14.20099111588292
1 31439U 99025BUB 18242.00372868  .00000372  00000-0  30668-3 0  9994
2 31439  99.1395 285.1450 0144677 220.3528 258.0544 13.90624327578694
1 31440U 99025BUC 18242.33523657  .00000513  00000-0  26649-3 0  9997
2 31440  98.8992 289.6325 0048722 105.3308 255.3259 14.18476138588462
1 31441U 99025BUD 18242.37911947  .00001366  00000-0  67057-3 0  9990
2 31441  99.3177 301.8366 0273273 286.5778  70.5539 14.01911156584583
1 31442U 99025BUE 18240.01422156 +.00000172 +00000-0 +83520-4 0  9997
2 31442 098.6456 325.1160 0084820 280.3079 078.8548 14.28489172592926
1 31443U 99025BUF 18241.90218162 +.00000355 +00000-0 +12194-3 0  9998
2 31443 099.2268 127.3949 0251013 247.9886 109.4455 14.27060962288333
1 31444U 99025BUG 18239.15776839  .00000907  00000-0  32350-3 0  9992
2 31444  98.9358  14.6225 0108991  45.7757 315.2313 14.33468755593880
1 31445U 99025BUH 18241.56533887  .00001701  00000-0  39476-3 0  9994
2 31445  98.9072  89.7681 0063049  81.1647 334.0152 14.55250287597482
1 31446U 99025BUJ 18237.64444781 +.00001318 +00000-0 +56583-3 0  9995
2 31446 098.7352 186.1475 0081378 041.8605 318.8758 14.24658260200311
1 31447U 99025BUK 18242.03808213  .00000192  00000-0  82854-4 0  9999
2 31447  98.8694 189.9826 0240086  69.6042 293.0745 14.20982995590569
1 31448U 99025BUL 18242.31329345  .00000262  00000-0  13991-3 0  9998
2 31448  98.7309 280.1525 0063930   7.8985 352.3183 14.20302518590611
1 31449U 99025BUM 18241.24272370  .00000064  00000-0  38063-4 0  9993
2 31449  98.8557 247.5848 0151335 164.0855 196.5159 14.30745688595652
1 31450U 99025BUN 18241.60624584 +.00002074 +00000-0 +12217-3 0  9998
2 31450 098.5625 019.2283 0333947 351.4988 008.0646 14.76497664598495
1 31451U 99025BUP 18241.90908861  .00000045  00000-0  50740-4 0  9995
2 31451  99.0674 262.7758 0033060 163.9900 315.2795 14.10504031587425
1 31452U 99025BUQ 18240.30606641  .00000114  00000-0  85377-4 0  9991
2 31452  98.7583 279.1385 0043082 161.5048 198.7701 14.11723804587255
1 31453U 99025BUR 13108.74280262 +.00000791 +00000-0 +18700-3 0  9991
2 31453 098.8000 213.4019 0106835 015.4093 345.0313 14.53808865318467
1 31455U 99025BUT 18242.33757324 -.00000069  00000-0 -12237-4 0  9990
2 31455  98.7854 301.3725 0225001  52.4977 309.6416 14.08833928586325
1 31456U 99025BUU 18239.46104164  .00000375  00000-0  15500-3 0  9992
2 31456  98.6405 322.4772 0080662 271.2111  87.9832 14.30719166593964
1 31457U 99025BUV 18242.12537955  .00002144  00000-0  17507-3 0  9993
2 31457  99.0158 356.2355 0146140 290.6797  67.8803 14.92888932611160
1 31458U 99025BUW 18239.27477211  .00000809  00000-0  20623-3 0  9993
2 31458  99.2196 250.5824 0090238  72.5438 288.5593 14.51359465598584
1 31459U 99025BUX 18241.36050175  .00000545  00000-0  23702-3 0  9991
2 31459  98.1353 291.4542 0127998 118.5376 242.8759 14.23152686588373
1 31462U 99025BVA 18241.02658880  .00000162  00000-0  11607-3 0  9991
2 31462  98.9686 269.6962 0033864 176.5898 213.4282 14.10182610584601
1 31463U 99025BVB 18242.31183814  .00000143  00000-0  58623-4 0  9994
2 31463  99.1125  81.1300 0232447 227.3051 130.8346 14.29639268592349
1 31464U 99025BVC 18241.27855590 +.00000181 +00000-0 +12742-3 0  9999
2 31464 099.1091 257.4555 0045440 177.4476 244.0971 14.09945103571416
1 31465U 99025BVD 18239.09209900  .00000725  00000-0  46774-3 0  9991
2 31465  98.6457 358.0558 0127323 200.3252 159.2821 14.02059865578543
1 31466U 99025BVE 18180.71739678 +.00000007 +00000-0 +19279-4 0  9990
2 31466 099.2368 348.6698 0307539 102.3064 326.1397 14.16382076577677
1 31467U 99025BVF 18240.86282713 +.00000685 +00000-0 +55227-3 0  9991
2 31467 098.5804 270.3810 0174796 134.7335 226.8205 13.86501945260957
1 31468U 99025BVG 18241.98377248  .00000209  00000-0  70486-4 0  9991
2 31468  98.3927 298.0058 0184896 285.4355  72.6477 14.38210293595647
1 31471U 99025BVK 18239.23972361  .00000357  00000-0  23997-3 0  9995
2 31471  97.9506  55.0389 0183423  51.4546 310.2900 13.97673612582454
1 31473U 99025BVM 18241.94906428  .00000469  00000-0  24898-3 0  9994
2 31473  98.8136 290.1174 0079983 134.3230 349.2631 14.16573067584893
1 31474U 99025BVN 18241.72020482 +.00000769 +00000-0 +52215-3 0  9995
2 31474 099.1499 218.7704 0079551 012.0666 348.2381 14.01706329576087
1 31475U 99025BVP 18242.13900824  .00000367  00000-0  12899-3 0  9997
2 31475  98.9096   4.9177 0243834 276.0289  81.3155 14.26242601589394
1 31476U 99025BVQ 18241.01042618 +.00000538 +00000-0 +32282-3 0  9990
2 31476 099.0982 262.3898 0062153 136.3365 254.3940 14.10304449580798
1 31477U 99025BVR 18241.56554367  .00000303  00000-0  21736-3 0  9992
2 31477  98.9349 267.4848 0117343 236.4240 122.5679 14.01277717581097
1 31478U 99025BVS 18242.36171503  .00001607  00000-0  56036-3 0  9998
2 31478 102.5923 292.2824 0054618  94.5091 322.6367 14.36919001588934
1 31480U 99025BVU 18241.71427356  .00001545  00000-0  10693-2 0  9998
2 31480  98.3572  28.7533 0415208 195.1945 238.0101 13.65619839569718
1 31481U 99025BVV 18240.39269800  .00003116  00000-0  54071-3 0  9995
2 31481  99.2386 296.4465 0056416 100.7549 260.0010 14.68056720599999
1 31482U 99025BVW 18242.09715821  .00000326  00000-0  14354-3 0  9994
2 31482  98.5940 284.8325 0100876 206.4255 209.4807 14.27116397592370
1 31483U 99025BVX 18242.30715574  .00001075  00000-0  77755-3 0  9990
2 31483 102.5086 267.6159 0157380 161.1048 259.0094 13.94353750577248
1 31484U 99025BVY 18241.58876287 +.00001701 +00000-0 +10085-2 0  9997
2 31484 101.8253 013.9021 0165195 095.3801 266.6225 14.03040415266264
1 31485U 99025BVZ 18241.89715362 +.00000133 +00000-0 +22167-3 0  9991
2 31485 102.7194 125.7227 0509367 223.4843 132.5024 13.26053247550560
1 31486U 99025BWA 18241.70542335 +.00001247 +00000-0 +55854-3 0  9996
2 31486 102.2824 061.5500 0022364 279.9996 079.8647 14.25479546586342
1 31487U 99025BWB 18241.76268612 +.00000397 +00000-0 +36323-3 0  9991
2 31487 102.4219 203.7640 0129334 179.7203 300.4075 13.88719236573920
1 31488U 99025BWC 18241.98721123  .00001310  00000-0  46113-3 0  9991
2 31488 102.6774 302.5763 0083808 344.8867  14.9802 14.35961598589430
1 31491U 99025BWE 18242.32181701  .00000729  00000-0  47754-3 0  9991
2 31491  99.3270  18.7805 0061086  80.4562 280.3500 14.04553314577978
1 31492U 99025BWF 18241.16965076  .00001431  00000-0  59166-3 0  9999
2 31492  98.8646 314.1019 0141330 258.3899 155.3042 14.23050459583961
1 31493U 99025BWG 18240.93624854  .00000166  00000-0  17281-3 0  9996
2 31493 100.1669 274.5726 0128744 295.8192  63.7774 13.87664265573636
1 31494U 99025BWH 18238.40877811  .00000719  00000-0  29015-3 0  9991
2 31494  99.5875 306.3863 0032341 292.2394  67.5356 14.31260411588881
1 31495U 99025BWJ 18241.09714399  .00000505  00000-0  27865-3 0  9996
2 31495  99.0522 354.8263 0034424 183.4324 176.6618 14.15827027584339
1 31496U 99025BWK 18241.95885568  .00004357  00000-0  23234-3 0  9994
2 31496  99.1174 145.4902 0114173   1.1242 359.0217 15.10406075612092
1 31497U 99025BWL 18241.90184351 +.00000024 +00000-0 +20664-4 0  9994
2 31497 098.3923 273.9393 0176715 035.2982 086.9354 14.35817521593348
1 31498U 99025BWM 18241.64258319  .00000728  00000-0  73038-3 0  9995
2 31498  98.5048 122.4672 0240782  62.3062 300.2294 13.68313476563205
1 31499U 99025BWN 18240.54730675  .00001606  00000-0  11155-2 0  9991
2 31499  97.6735 141.8366 0334597  67.3792 296.2390 13.76069247566428
1 31500U 99025BWP 18241.94500551  .00003047  00000-0  14906-3 0  9996
2 31500  98.8861 134.3395 0244895 275.5695  81.7642 14.96739249597823
1 31501U 99025BWQ 18241.88199550  .00000361  00000-0  21066-3 0  9994
2 31501  98.9740 277.8400 0044761  33.6226 326.7772 14.14257598583423
1 31502U 99025BWR 18242.28319577  .00000684  00000-0  46804-3 0  9998
2 31502  99.2590 270.0137 0082325  54.8563 306.0281 14.01604492582071
1 31503U 99025BWS 18239.33717405  .00000413  00000-0  25111-3 0  9991
2 31503 100.1310  76.4767 0055882 267.0569  92.4203 14.12262042583482
1 31504U 99025BWT 18241.93944510 +.00001592 +00000-0 +45145-3 0  9998
2 31504 101.5042 131.6478 0153851 295.8514 129.9761 14.41119770587386
1 31505U 99025BWU 18241.24247745 +.00001385 +00000-0 +58748-3 0  9992
2 31505 101.9311 250.6783 0048298 230.7988 128.8887 14.27391462583402
1 31507U 99025BWW 18241.35335715 +.00000250 +00000-0 +80091-4 0  9998
2 31507 098.5160 276.5694 0131645 241.5725 183.5920 14.43559808595501
